start=new Date('2022-11-16T00:00:00.000Z').valueOf();
sats=[{"OBJECT_NAME":"STARLINK-2595","RCS_SIZE":"LARGE","LAUNCH_DATE":"2021-05-04","OBJECT_ID":"2021-038BG","PERIOD":"95.592","MEAN_MOTION_DDOT":"0.0000000000000","SEMIMAJOR_AXIS":"6925.357","MEAN_MOTION":"15.06397124","ECCENTRICITY":"0.00017000","ARG_OF_PERICENTER":"53.8171","TLE_LINE1":"1 48407U 21038BG  22319.48806820  .00000156  00000-0  29355-4 0  9990","MEAN_ELEMENT_THEORY":"SGP4","INCLINATION":"53.0563","CLASSIFICATION_TYPE":"U","EPHEMERIS_TYPE":"0","COUNTRY_CODE":"US","ELEMENT_SET_NO":"999","CENTER_NAME":"EARTH","GP_ID":"217881639","OBJECT_TYPE":"PAYLOAD","MEAN_MOTION_DOT":"0.00000156","APOAPSIS":"548.400","PERIAPSIS":"546.045","REF_FRAME":"TEME","TIME_SYSTEM":"UTC","TLE_LINE2":"2 48407  53.0563  14.4230 0001700  53.8171 306.2975 15.06397124 85489","RA_OF_ASC_NODE":"14.4230","FILE":"3657897","SITE":"AFETR","REV_AT_EPOCH":"8548","DECAY_DATE":null,"MEAN_ANOMALY":"306.2975","EPOCH":"2022-11-15T11:42:49.092480","NORAD_CAT_ID":"48407","BSTAR":"0.00002935500000"},{"SITE":"AFETR","REV_AT_EPOCH":"8488","RA_OF_ASC_NODE":"14.7533","TLE_LINE2":"2 48408  53.0555  14.7533 0001445  80.3206 279.7946 15.06402546 84880","FILE":"3657603","BSTAR":"0.00021891000000","DECAY_DATE":null,"NORAD_CAT_ID":"48408","MEAN_ANOMALY":"279.7946","EPOCH":"2022-11-15T10:01:57.404064","MEAN_MOTION_DOT":"0.00002981","GP_ID":"217845784","ELEMENT_SET_NO":"999","COUNTRY_CODE":"US","CENTER_NAME":"EARTH","OBJECT_TYPE":"PAYLOAD","TIME_SYSTEM":"UTC","REF_FRAME":"TEME","PERIAPSIS":"546.205","APOAPSIS":"548.206","ARG_OF_PERICENTER":"80.3206","ECCENTRICITY":"0.00014450","TLE_LINE1":"1 48408U 21038BH  22319.41802551  .00002981  00000-0  21891-3 0  9995","INCLINATION":"53.0555","EPHEMERIS_TYPE":"0","CLASSIFICATION_TYPE":"U","MEAN_ELEMENT_THEORY":"SGP4","OBJECT_ID":"2021-038BH","PERIOD":"95.592","LAUNCH_DATE":"2021-05-04","OBJECT_NAME":"STARLINK-2592","RCS_SIZE":"LARGE","MEAN_MOTION":"15.06402546","SEMIMAJOR_AXIS":"6925.341","MEAN_MOTION_DDOT":"0.0000000000000"},{"OBJECT_ID":"2021-038BJ","PERIOD":"95.593","LAUNCH_DATE":"2021-05-04","OBJECT_NAME":"STARLINK-2596","RCS_SIZE":"LARGE","MEAN_MOTION":"15.06393650","SEMIMAJOR_AXIS":"6925.368","MEAN_MOTION_DDOT":"0.0000000000000","ARG_OF_PERICENTER":"58.4309","ECCENTRICITY":"0.00016740","TLE_LINE1":"1 48409U 21038BJ  22319.64056957  .00000696  00000-0  65613-4 0  9994","INCLINATION":"53.0535","EPHEMERIS_TYPE":"0","CLASSIFICATION_TYPE":"U","MEAN_ELEMENT_THEORY":"SGP4","MEAN_MOTION_DOT":"0.00000696","GP_ID":"217903625","ELEMENT_SET_NO":"999","COUNTRY_CODE":"US","CENTER_NAME":"EARTH","OBJECT_TYPE":"PAYLOAD","REF_FRAME":"TEME","TIME_SYSTEM":"UTC","PERIAPSIS":"546.074","APOAPSIS":"548.392","SITE":"AFETR","REV_AT_EPOCH":"8486","TLE_LINE2":"2 48409  53.0535  18.7553 0001674  58.4309 301.6843 15.06393650 84863","FILE":"3657961","RA_OF_ASC_NODE":"18.7553","BSTAR":"0.00006561300000","DECAY_DATE":null,"NORAD_CAT_ID":"48409","MEAN_ANOMALY":"301.6843","EPOCH":"2022-11-15T15:22:25.210848"},{"REV_AT_EPOCH":"8551","SITE":"AFETR","RA_OF_ASC_NODE":"330.2204","TLE_LINE2":"2 48410  53.0556 330.2204 0002068  46.6534 313.4627 15.06408311 85515","FILE":"3657603","BSTAR":"-0.00018806000000","NORAD_CAT_ID":"48410","MEAN_ANOMALY":"313.4627","EPOCH":"2022-11-15T07:31:20.509248","DECAY_DATE":null,"MEAN_MOTION_DOT":"-0.00003082","OBJECT_TYPE":"PAYLOAD","GP_ID":"217844787","CENTER_NAME":"EARTH","COUNTRY_CODE":"US","ELEMENT_SET_NO":"999","REF_FRAME":"TEME","TIME_SYSTEM":"UTC","PERIAPSIS":"545.756","APOAPSIS":"548.620","TLE_LINE1":"1 48410U 21038BK  22319.31343182 -.00003082  00000-0 -18806-3 0  9994","ARG_OF_PERICENTER":"46.6534","ECCENTRICITY":"0.00020680","CLASSIFICATION_TYPE":"U","EPHEMERIS_TYPE":"0","INCLINATION":"53.0556","MEAN_ELEMENT_THEORY":"SGP4","PERIOD":"95.592","OBJECT_ID":"2021-038BK","LAUNCH_DATE":"2021-05-04","RCS_SIZE":"LARGE","OBJECT_NAME":"STARLINK-2563","MEAN_MOTION":"15.06408311","SEMIMAJOR_AXIS":"6925.323","MEAN_MOTION_DDOT":"0.0000000000000"},{"PERIAPSIS":"546.049","APOAPSIS":"548.394","REF_FRAME":"TEME","TIME_SYSTEM":"UTC","GP_ID":"217845037","ELEMENT_SET_NO":"999","COUNTRY_CODE":"US","CENTER_NAME":"EARTH","OBJECT_TYPE":"PAYLOAD","MEAN_MOTION_DOT":"0.00002193","DECAY_DATE":null,"NORAD_CAT_ID":"48411","MEAN_ANOMALY":"303.6513","EPOCH":"2022-11-15T12:42:31.526784","BSTAR":"0.00016610000000","TLE_LINE2":"2 48411  53.0539 324.2499 0001693  56.4638 303.6513 15.06397304 85618","RA_OF_ASC_NODE":"324.2499","FILE":"3657603","SITE":"AFETR","REV_AT_EPOCH":"8561","MEAN_MOTION_DDOT":"0.0000000000000","MEAN_MOTION":"15.06397304","SEMIMAJOR_AXIS":"6925.357","LAUNCH_DATE":"2021-05-04","RCS_SIZE":"LARGE","OBJECT_NAME":"STARLINK-2505","OBJECT_ID":"2021-038BL","PERIOD":"95.592","MEAN_ELEMENT_THEORY":"SGP4","INCLINATION":"53.0539","EPHEMERIS_TYPE":"0","CLASSIFICATION_TYPE":"U","ARG_OF_PERICENTER":"56.4638","ECCENTRICITY":"0.00016930","TLE_LINE1":"1 48411U 21038BL  22319.52953156  .00002193  00000-0  16610-3 0  9997"},{"PERIAPSIS":"546.081","APOAPSIS":"548.341","TIME_SYSTEM":"UTC","REF_FRAME":"TEME","OBJECT_TYPE":"PAYLOAD","GP_ID":"217845284","CENTER_NAME":"EARTH","COUNTRY_CODE":"US","ELEMENT_SET_NO":"999","MEAN_MOTION_DOT":"0.00004760","NORAD_CAT_ID":"48412","MEAN_ANOMALY":"294.8645","EPOCH":"2022-11-15T06:46:58.615968","DECAY_DATE":null,"BSTAR":"0.00033822000000","TLE_LINE2":"2 48412  53.0559 325.7918 0001632  65.2514 294.8645 15.06400781 85573","RA_OF_ASC_NODE":"325.7918","FILE":"3657603","REV_AT_EPOCH":"8557","SITE":"AFETR","MEAN_MOTION_DDOT":"0.0000000000000","MEAN_MOTION":"15.06400781","SEMIMAJOR_AXIS":"6925.346","LAUNCH_DATE":"2021-05-04","OBJECT_NAME":"STARLINK-2581","RCS_SIZE":"LARGE","PERIOD":"95.592","OBJECT_ID":"2021-038BM","MEAN_ELEMENT_THEORY":"SGP4","CLASSIFICATION_TYPE":"U","EPHEMERIS_TYPE":"0","INCLINATION":"53.0559","TLE_LINE1":"1 48412U 21038BM  22319.28262287  .00004760  00000-0  33822-3 0  9995","ARG_OF_PERICENTER":"65.2514","ECCENTRICITY":"0.00016320"},{"TLE_LINE2":"2 48428  53.0535 217.6429 0001783  64.7944 295.3229 15.06384079 84213","RA_OF_ASC_NODE":"217.6429","FILE":"3657961","REV_AT_EPOCH":"8421","SITE":"AFETR","EPOCH":"2022-11-15T21:18:02.684448","MEAN_ANOMALY":"295.3229","NORAD_CAT_ID":"48428","DECAY_DATE":null,"BSTAR":"0.00017089000000","OBJECT_TYPE":"PAYLOAD","CENTER_NAME":"EARTH","COUNTRY_CODE":"US","ELEMENT_SET_NO":"999","GP_ID":"217903377","MEAN_MOTION_DOT":"0.00002264","APOAPSIS":"548.497","PERIAPSIS":"546.028","REF_FRAME":"TEME","TIME_SYSTEM":"UTC","TLE_LINE1":"1 48428U 21040A   22319.88753107  .00002264  00000-0  17089-3 0  9991","ECCENTRICITY":"0.00017830","ARG_OF_PERICENTER":"64.7944","MEAN_ELEMENT_THEORY":"SGP4","CLASSIFICATION_TYPE":"U","EPHEMERIS_TYPE":"0","INCLINATION":"53.0535","OBJECT_NAME":"STARLINK-2461","RCS_SIZE":"LARGE","LAUNCH_DATE":"2021-05-09","PERIOD":"95.593","OBJECT_ID":"2021-040A","MEAN_MOTION_DDOT":"0.0000000000000","SEMIMAJOR_AXIS":"6925.397","MEAN_MOTION":"15.06384079"},{"TLE_LINE2":"2 48429  53.0536 187.7788 0001396  82.7163 277.3984 15.06393107 84628","FILE":"3657961","RA_OF_ASC_NODE":"187.7788","REV_AT_EPOCH":"8462","SITE":"AFETR","EPOCH":"2022-11-15T20:34:14.920032","MEAN_ANOMALY":"277.3984","NORAD_CAT_ID":"48429","DECAY_DATE":null,"BSTAR":"0.00002768500000","OBJECT_TYPE":"PAYLOAD","ELEMENT_SET_NO":"999","COUNTRY_CODE":"US","CENTER_NAME":"EARTH","GP_ID":"217903627","MEAN_MOTION_DOT":"0.00000131","APOAPSIS":"548.201","PERIAPSIS":"546.268","TIME_SYSTEM":"UTC","REF_FRAME":"TEME","TLE_LINE1":"1 48429U 21040B   22319.85711713  .00000131  00000-0  27685-4 0  9991","ECCENTRICITY":"0.00013960","ARG_OF_PERICENTER":"82.7163","MEAN_ELEMENT_THEORY":"SGP4","CLASSIFICATION_TYPE":"U","EPHEMERIS_TYPE":"0","INCLINATION":"53.0536","RCS_SIZE":"LARGE","OBJECT_NAME":"STARLINK-2749","LAUNCH_DATE":"2021-05-09","PERIOD":"95.593","OBJECT_ID":"2021-040B","MEAN_MOTION_DDOT":"0.0000000000000","SEMIMAJOR_AXIS":"6925.370","MEAN_MOTION":"15.06393107"},{"PERIAPSIS":"546.127","APOAPSIS":"548.323","REF_FRAME":"TEME","TIME_SYSTEM":"UTC","OBJECT_TYPE":"PAYLOAD","GP_ID":"217904878","COUNTRY_CODE":"US","ELEMENT_SET_NO":"999","CENTER_NAME":"EARTH","MEAN_MOTION_DOT":"0.00000997","NORAD_CAT_ID":"48430","MEAN_ANOMALY":"305.7098","EPOCH":"2022-11-15T21:20:39.507360","DECAY_DATE":null,"BSTAR":"0.00008582400000","RA_OF_ASC_NODE":"187.6311","TLE_LINE2":"2 48430  53.0519 187.6311 0001585  54.4038 305.7098 15.06396242 84635","FILE":"3657961","REV_AT_EPOCH":"8463","SITE":"AFETR","MEAN_MOTION_DDOT":"0.0000000000000","MEAN_MOTION":"15.06396242","SEMIMAJOR_AXIS":"6925.360","LAUNCH_DATE":"2021-05-09","RCS_SIZE":"LARGE","OBJECT_NAME":"STARLINK-2729","PERIOD":"95.592","OBJECT_ID":"2021-040C","MEAN_ELEMENT_THEORY":"SGP4","EPHEMERIS_TYPE":"0","CLASSIFICATION_TYPE":"U","INCLINATION":"53.0519","TLE_LINE1":"1 48430U 21040C   22319.88934615  .00000997  00000-0  85824-4 0  9993","ARG_OF_PERICENTER":"54.4038","ECCENTRICITY":"0.00015850"},{"OBJECT_TYPE":"PAYLOAD","GP_ID":"217904629","COUNTRY_CODE":"US","ELEMENT_SET_NO":"999","CENTER_NAME":"EARTH","MEAN_MOTION_DOT":"0.00002547","PERIAPSIS":"546.166","APOAPSIS":"548.249","TIME_SYSTEM":"UTC","REF_FRAME":"TEME","RA_OF_ASC_NODE":"182.8715","TLE_LINE2":"2 48431  53.0526 182.8715 0001504  65.0872 295.0273 15.06401945 84693","FILE":"3657961","REV_AT_EPOCH":"8469","SITE":"AFETR","NORAD_CAT_ID":"48431","MEAN_ANOMALY":"295.0273","EPOCH":"2022-11-15T20:04:21.704448","DECAY_DATE":null,"BSTAR":"0.00018978000000","LAUNCH_DATE":"2021-05-09","RCS_SIZE":"LARGE","OBJECT_NAME":"STARLINK-2700","PERIOD":"95.592","OBJECT_ID":"2021-040D","MEAN_MOTION_DDOT":"0.0000000000000","MEAN_MOTION":"15.06401945","SEMIMAJOR_AXIS":"6925.343","TLE_LINE1":"1 48431U 21040D   22319.83636232  .00002547  00000-0  18978-3 0  9991","ARG_OF_PERICENTER":"65.0872","ECCENTRICITY":"0.00015040","MEAN_ELEMENT_THEORY":"SGP4","CLASSIFICATION_TYPE":"U","EPHEMERIS_TYPE":"0","INCLINATION":"53.0526"}];
